MEAN_MOTION;ECCENTRICITY;INCLINATION;RA_OF_ASC_NODE;ARG_OF_PERICENTER;MEAN_ANOMALY;BSTAR;MEAN_MOTION_DOT;MEAN_MOTION_DDOT;TYPE
14.34217656;0.0001889;86.3922;84.3434;82.0412;278.0998;1.886E-5;7.3E-7;0;Iridium
14.34217749;0.0001877;86.3922;84.1098;82.2238;277.9171;2.1314E-5;7.9E-7;0;Iridium
14.34217759;0.0001875;86.3922;84.0806;82.187;277.9539;2.1387E-5;8.0E-7;0;Iridium
14.34217898;0.0001854;86.3922;83.6718;82.5236;277.6171;2.3591E-5;8.6E-7;0;Iridium
14.3421791;0.0001853;86.3922;83.6425;82.5329;277.6077;2.3966E-5;8.7E-7;0;Iridium
14.34217997;0.0001841;86.3923;83.2921;83.061;277.0795;2.3231E-5;8.5E-7;0;Iridium
14.34217999;0.000184;86.3922;83.2629;82.9518;277.1887;2.2374E-5;8.2E-7;0;Iridium
14.3421806;0.0001829;86.3923;82.8541;83.6163;276.5241;1.8546E-5;7.2E-7;0;Iridium
14.34218196;0.0001816;86.3923;82.4453;84.1085;276.0317;1.786E-5;7.0E-7;0;Iridium
14.34218322;0.0001803;86.3924;82.0365;84.8282;275.312;1.672E-5;6.7E-7;0;Iridium
14.34218296;0.0001804;86.3924;81.8321;85.1615;274.9787;1.3358E-5;5.7E-7;0;Iridium
14.34218309;0.0001791;86.3925;81.5986;85.2246;274.9154;1.1296E-5;5.1E-7;0;Iridium
14.34218309;0.0001791;86.3925;81.5986;85.2246;274.9154;1.1296E-5;5.1E-7;0;Iridium
14.34218347;0.0001792;86.3926;81.4234;85.5758;274.5643;1.1145E-5;5.1E-7;0;Iridium
14.34218407;0.0001793;86.3926;81.0145;86.5345;273.6056;1.0045E-5;4.8E-7;0;Iridium
14.3421845;0.000179;86.3926;80.7517;87.005;273.1351;9.7033E-6;4.7E-7;0;Iridium
14.34218504;0.0001789;86.3926;80.6057;87.1088;273.0312;1.1997E-5;5.3E-7;0;Iridium
14.34218538;0.0001787;86.3927;80.3429;87.5609;272.5792;1.1688E-5;5.3E-7;0;Iridium
14.34218585;0.0001788;86.3928;80.1678;87.7981;272.3419;1.339E-5;5.7E-7;0;Iridium
14.3421866;0.0001785;86.3928;79.9342;88.2876;271.8524;1.7143E-5;6.8E-7;0;Iridium
14.34218682;0.0001787;86.3929;79.7882;88.4938;271.6462;1.7512E-5;6.9E-7;0;Iridium
14.34218774;0.0001784;86.3929;79.4963;89.0693;271.0707;1.983E-5;7.5E-7;0;Iridium
14.34218774;0.0001784;86.3929;79.4963;89.0693;271.0707;1.983E-5;7.5E-7;0;Iridium
14.34218783;0.0001785;86.3929;79.4671;89.0491;271.0909;2.0091E-5;7.6E-7;0;Iridium
14.34218838;0.0001784;86.3929;79.3211;89.3296;270.8104;2.182E-5;8.1E-7;0;Iridium
14.34218896;0.000178;86.393;79.0876;89.7751;270.3649;2.2605E-5;8.3E-7;0;Iridium
14.34218953;0.0001782;86.393;78.9124;90.0766;270.0634;2.3681E-5;8.6E-7;0;Iridium
14.3421902;0.0001781;86.3931;78.6789;90.4809;269.659;2.4324E-5;8.8E-7;0;Iridium
14.34219033;0.0001785;86.3931;78.5037;90.7331;269.4069;2.2614E-5;8.3E-7;0;Iridium
14.34215859;0.000181;86.3932;78.2702;90.5704;269.5699;3.6327E-5;1.22E-6;0;Iridium
14.34215979;0.0001802;86.3932;78.0659;91.1941;268.9461;1.0215E-5;4.8E-7;0;Iridium
14.34216018;0.0001806;86.3933;77.8323;91.6644;268.4759;4.8131E-6;3.3E-7;0;Iridium
14.34216021;0.0001807;86.3933;77.8031;91.6161;268.5242;4.5588E-6;3.3E-7;0;Iridium
14.34216054;0.0001807;86.3933;77.6572;91.923;268.2173;4.5348E-6;3.2E-7;0;Iridium
14.34216106;0.0001809;86.3934;77.4237;92.3485;267.7918;3.7069E-6;3.0E-7;0;Iridium
14.34216148;0.0001812;86.3934;77.2194;92.7608;267.3795;2.6128E-6;2.7E-7;0;Iridium
14.34216426;0.0001818;86.3935;77.0151;93.0823;267.058;2.6975E-5;9.5E-7;0;Iridium
14.34216515;0.0001824;86.3936;76.8108;93.2823;266.8582;2.6647E-5;9.4E-7;0;Iridium
14.34216597;0.0001826;86.3937;76.6064;93.5943;266.5462;2.6612E-5;9.4E-7;0;Iridium
14.34216649;0.0001833;86.3938;76.4021;93.79;266.3506;2.4263E-5;8.8E-7;0;Iridium
14.34216726;0.0001837;86.3939;76.1686;94.2603;265.8803;2.3323E-5;8.5E-7;0;Iridium
14.34216732;0.0001839;86.3939;76.1395;94.2865;265.8541;2.3363E-5;8.5E-7;0;Iridium
14.3421677;0.0001844;86.3939;75.9935;94.4289;265.7118;2.1866E-5;8.1E-7;0;Iridium
14.3421684;0.0001851;86.3941;75.7601;94.8542;265.2865;2.0928E-5;7.8E-7;0;Iridium
14.34216892;0.0001861;86.3941;75.5558;95.0758;265.065;1.9642E-5;7.5E-7;0;Iridium
14.34216922;0.0001865;86.3942;75.3515;95.3079;264.8329;1.8345E-5;7.1E-7;0;Iridium
14.34216984;0.0001873;86.3943;75.1472;95.4573;264.6837;1.8692E-5;7.2E-7;0;Iridium
14.34216991;0.0001875;86.3943;75.118;95.4935;264.6474;1.8553E-5;7.2E-7;0;Iridium
14.3421711;0.0001885;86.3945;74.7387;95.8688;264.2723;1.9845E-5;7.5E-7;0;Iridium
14.34217228;0.0001892;86.3946;74.5052;96.2925;263.8486;2.2848E-5;8.4E-7;0;Iridium
14.34217228;0.0001892;86.3946;74.5052;96.2925;263.8486;2.2848E-5;8.4E-7;0;Iridium
14.34217292;0.0001904;86.3947;74.3009;96.4172;263.7241;2.3238E-5;8.5E-7;0;Iridium
14.34217368;0.0001909;86.3947;74.0966;96.6594;263.4819;2.5122E-5;9.0E-7;0;Iridium
14.34217484;0.0001922;86.3948;73.8924;96.8477;263.2938;2.7643E-5;9.7E-7;0;Iridium
14.34217585;0.0001931;86.3949;73.659;96.96;263.1815;2.9847E-5;1.03E-6;0;Iridium
14.34217585;0.0001931;86.3949;73.659;96.96;263.1815;2.9847E-5;1.03E-6;0;Iridium
14.34217647;0.0001941;86.395;73.4839;97.1456;262.9961;3.0153E-5;1.04E-6;0;Iridium
14.34217712;0.000195;86.3951;73.2505;97.3328;262.8089;3.0601E-5;1.05E-6;0;Iridium
14.34217769;0.0001965;86.3951;73.0463;97.5049;262.637;3.0189E-5;1.04E-6;0;Iridium
14.34217821;0.0001974;86.3952;72.842;97.5054;262.6366;2.9504E-5;1.02E-6;0;Iridium
14.34217894;0.0001992;86.3953;72.6378;97.8885;262.2537;2.9024E-5;1.01E-6;0;Iridium
14.34217975;0.0002002;86.3954;72.4337;98.0595;262.0828;2.95E-5;1.02E-6;0;Iridium
14.34218018;0.0002013;86.3955;72.2295;97.8896;262.2529;2.702E-5;9.5E-7;0;Iridium
14.34218095;0.0002026;86.3956;71.996;98.1256;262.017;2.6169E-5;9.3E-7;0;Iridium
14.34218095;0.0002026;86.3956;71.996;98.1256;262.017;2.6169E-5;9.3E-7;0;Iridium
14.3421816;0.0002035;86.3956;71.7919;98.1155;262.0272;2.4812E-5;8.9E-7;0;Iridium
14.3421827;0.0002046;86.3958;71.5877;98.3078;261.835;2.5829E-5;9.2E-7;0;Iridium
14.34218335;0.0002057;86.3958;71.3835;98.1819;261.961;2.4265E-5;8.8E-7;0;Iridium
14.34218411;0.0002066;86.3959;71.1793;98.2942;261.8488;2.3666E-5;8.6E-7;0;Iridium
14.34218457;0.0002078;86.396;70.9751;98.1113;262.0318;2.162E-5;8.0E-7;0;Iridium
14.34218513;0.0002101;86.3962;70.5375;98.1838;261.9596;1.5586E-5;6.3E-7;0;Iridium
14.34218606;0.0002119;86.3963;70.3334;98.2608;261.8828;1.653E-5;6.6E-7;0;Iridium
14.3421877;0.0002146;86.3964;69.925;98.6136;261.5303;1.8276E-5;7.1E-7;0;Iridium
14.34218857;0.0002161;86.3965;69.7209;98.5368;261.6073;1.9734E-5;7.5E-7;0;Iridium
14.34218896;0.0002173;86.3966;69.5167;98.5588;261.5854;1.9716E-5;7.5E-7;0;Iridium
14.34218978;0.0002192;86.3967;69.2834;98.4897;261.6548;2.0842E-5;7.8E-7;0;Iridium
14.34218977;0.0002198;86.3968;69.1084;98.2241;261.9205;1.9297E-5;7.4E-7;0;Iridium
14.34219048;0.000221;86.3969;68.8751;98.0974;262.0473;2.0403E-5;7.7E-7;0;Iridium
14.34219105;0.0002217;86.3969;68.6709;98.0672;262.0775;2.1405E-5;8.0E-7;0;Iridium
14.34219105;0.0002217;86.3969;68.6709;98.0672;262.0775;2.1405E-5;8.0E-7;0;Iridium
14.34219154;0.0002231;86.397;68.4668;97.9807;262.1642;2.2047E-5;8.2E-7;0;Iridium
14.34219197;0.0002238;86.3971;68.2626;97.8438;262.3012;2.2248E-5;8.2E-7;0;Iridium
14.34219197;0.0002238;86.3971;68.2626;97.8438;262.3012;2.2248E-5;8.2E-7;0;Iridium
14.34219253;0.0002253;86.3971;68.0293;97.7562;262.3889;2.2514E-5;8.3E-7;0;Iridium
14.34219335;0.0002263;86.3972;67.8543;97.7887;262.3566;2.4805E-5;8.9E-7;0;Iridium
14.34219388;0.0002283;86.3973;67.6211;97.8531;262.2924;2.3964E-5;8.7E-7;0;Iridium
14.34219385;0.0002284;86.3973;67.592;97.7815;262.364;2.3705E-5;8.6E-7;0;Iridium
14.34219445;0.0002292;86.3974;67.4171;97.7785;262.3671;2.4499E-5;8.8E-7;0;Iridium
14.34219486;0.0002306;86.3974;67.213;97.703;262.4427;2.3401E-5;8.5E-7;0;Iridium
14.34219581;0.0002318;86.3975;67.009;97.7503;262.3956;2.5103E-5;9.0E-7;0;Iridium
14.34219627;0.0002334;86.3975;66.7757;97.5861;262.56;2.3278E-5;8.5E-7;0;Iridium
14.34219714;0.0002343;86.3975;66.6008;97.5276;262.6186;2.4806E-5;8.9E-7;0;Iridium
14.34219761;0.0002355;86.3976;66.3675;97.1173;263.029;2.2401E-5;8.3E-7;0;Iridium
14.34219879;0.0002368;86.3977;66.1634;96.9773;263.1692;2.4426E-5;8.8E-7;0;Iridium
14.34219879;0.0002368;86.3977;66.1634;96.9773;263.1692;2.4426E-5;8.8E-7;0;Iridium
14.34219901;0.000239;86.3977;65.9593;97.069;263.0778;2.1211E-5;7.9E-7;0;Iridium
14.34219996;0.0002406;86.3979;65.5803;96.5995;263.5475;1.9198E-5;7.4E-7;0;Iridium
14.34220004;0.000241;86.3979;65.522;96.5832;263.5639;1.8423E-5;7.1E-7;0;Iridium
14.3422008;0.0002414;86.398;65.3471;96.3979;263.7491;1.9323E-5;7.4E-7;0;Iridium
14.34220118;0.0002435;86.398;65.1138;96.2838;263.8635;1.6884E-5;6.7E-7;0;Iridium
14.34220139;0.0002433;86.3981;64.939;95.9664;264.1809;1.601E-5;6.5E-7;0;Iridium
14.34215838;0.0002517;86.3981;64.7058;95.0739;265.0744;1.4878E-5;6.1E-7;0;Iridium
14.3421553;0.0002475;86.3983;64.5018;94.7025;265.4453;1.5325E-5;6.3E-7;0;Iridium
14.3421553;0.0002475;86.3983;64.5018;94.7025;265.4453;1.5325E-5;6.3E-7;0;Iridium
14.3421553;0.0002484;86.3984;64.2977;94.3603;265.7876;1.4581E-5;6.1E-7;0;Iridium
14.34215533;0.0002487;86.3984;64.0936;94.5033;265.6447;1.4757E-5;6.1E-7;0;Iridium
14.34215443;0.0002492;86.3985;63.8604;93.9346;266.2134;-2.2956E-6;1.3E-7;0;Iridium
14.34215521;0.000249;86.3985;63.6854;93.4142;266.7338;5.1457E-6;3.4E-7;0;Iridium
14.34215521;0.000249;86.3985;63.6854;93.4142;266.7338;5.1457E-6;3.4E-7;0;Iridium
14.34215625;0.0002516;86.3986;63.4524;93.9511;266.1972;1.126E-5;5.1E-7;0;Iridium
14.34215723;0.000252;86.3987;63.2775;93.7602;266.3882;1.7295E-5;6.8E-7;0;Iridium
14.3421576;0.0002527;86.3987;63.0443;93.454;266.6945;1.6573E-5;6.6E-7;0;Iridium
14.34215861;0.0002533;86.3988;62.8403;93.4225;266.726;2.0726E-5;7.8E-7;0;Iridium
14.34215861;0.0002533;86.3988;62.8403;93.4225;266.726;2.0726E-5;7.8E-7;0;Iridium
14.3421599;0.0002531;86.3988;62.607;92.8265;267.3221;2.463E-5;8.9E-7;0;Iridium
14.34218379;0.0003043;86.4021;62.4247;80.8227;279.3313;2.6146E-5;9.3E-7;0;Iridium
14.34217893;0.0002587;86.3989;62.1987;92.9087;267.2405;2.6158E-5;9.3E-7;0;Iridium
14.34218187;0.0002602;86.3989;61.8195;91.7547;268.3947;3.888E-5;1.29E-6;0;Iridium
14.3421802;0.0002606;86.3989;61.4992;91.6474;268.5021;5.1976E-6;3.4E-7;0;Iridium
14.34218038;0.0002602;86.3989;61.4409;91.6317;268.5177;5.2805E-6;3.5E-7;0;Iridium
14.34215168;0.000261;86.3989;61.0914;91.2097;268.9398;4.5095E-6;3.2E-7;0;Iridium
